IRIDIUM 39              
1 25042U 97069D   26013.56233867  .00000527  00000+0  13186-3 0  9991
2 25042  86.3934 120.9859 0016351 329.2237  30.8007 14.49562395479439
IRIDIUM 38              
1 25043U 97069E   26013.42302382  .00000426  00000+0  13342-3 0  9998
2 25043  86.3996 144.7875 0003798 111.4567 248.7037 14.38352421476174
IRIDIUM 42              
1 25077U 97077A   26013.40985295  .00000353  00000+0  11333-3 0  9999
2 25077  86.4003 151.2210 0002559 108.8597 251.2878 14.36565808471376
IRIDIUM 44              
1 25078U 97077B   26013.56052802  .00000298  00000+0  87409-4 0  9992
2 25078  86.3992 132.5297 0003741  76.8953 283.2664 14.40463790473983
IRIDIUM 45              
1 25104U 97082A   26013.54256418  .00016182  00000+0  43627-3 0  9997
2 25104  86.3552 304.9807 0090447 257.6119 101.4998 15.33524495484143
IRIDIUM 24              
1 25105U 97082B   26013.46816816  .00000389  00000+0  11158-3 0  9999
2 25105  86.3924 351.0876 0013499 100.7479 259.5242 14.42365523473526
IRIDIUM 51              
1 25262U 98018A   26013.28293342  .00126456  00000+0  97469-3 0  9999
2 25262  86.3715 309.9583 0047290 141.9337 218.5291 15.70051114479582
IRIDIUM 57              
1 25273U 98019B   26013.54568734  .00000257  00000+0  81659-4 0  9996
2 25273  86.3927  57.0441 0002319  93.2884 266.8579 14.36077672454971
